[{"OBJECT_NAME":"CHECKMATE 7","OBJECT_ID":"2023-050E","EPOCH":"2026-03-09T21:02:25.149408","MEAN_MOTION":13.8516674,"ECCENTRICITY":0.00065951,"INCLINATION":81.0032,"RA_OF_ASC_NODE":166.6398,"ARG_OF_PERICENTER":213.3356,"MEAN_ANOMALY":146.7386,"EPHEMERIS_TYPE":0,"CLASSIFICATION_TYPE":"U","NORAD_CAT_ID":56166,"ELEMENT_SET_NO":999,"REV_AT_EPOCH":14835,"BSTAR":0.00014609546,"MEAN_MOTION_DOT":1.77e-6,"MEAN_MOTION_DDOT":0},{"OBJECT_NAME":"CZ-6A DEB","OBJECT_ID":"2022-151SH","EPOCH":"2026-03-08T12:36:44.845056","MEAN_MOTION":13.12916669,"ECCENTRICITY":0.05104418,"INCLINATION":99.0487,"RA_OF_ASC_NODE":281.7349,"ARG_OF_PERICENTER":55.634,"MEAN_ANOMALY":309.1978,"EPHEMERIS_TYPE":0,"CLASSIFICATION_TYPE":"U","NORAD_CAT_ID":54944,"ELEMENT_SET_NO":999,"REV_AT_EPOCH":15856,"BSTAR":0.00028958039,"MEAN_MOTION_DOT":1.7e-6,"MEAN_MOTION_DDOT":0}]
